[{"OBJECT_NAME":"STARLINK-34234","OBJECT_ID":"2025-119R","EPOCH":"2026-03-09T01:37:08.522400","MEAN_MOTION":15.27585996,"ECCENTRICITY":0.00015913,"INCLINATION":43.0018,"RA_OF_ASC_NODE":310.6096,"ARG_OF_PERICENTER":264.1846,"MEAN_ANOMALY":95.8825,"EPHEMERIS_TYPE":0,"CLASSIFICATION_TYPE":"U","NORAD_CAT_ID":64248,"ELEMENT_SET_NO":999,"REV_AT_EPOCH":4407,"BSTAR":0.00060997457,"MEAN_MOTION_DOT":0.00016564,"MEAN_MOTION_DDOT":0},{"OBJECT_NAME":"OBJECT J","OBJECT_ID":"2025-155J","EPOCH":"2026-03-09T22:09:22.347648","MEAN_MOTION":15.2758258,"ECCENTRICITY":0.00088188,"INCLINATION":97.4475,"RA_OF_ASC_NODE":37.3123,"ARG_OF_PERICENTER":150.071,"MEAN_ANOMALY":210.1035,"EPHEMERIS_TYPE":0,"CLASSIFICATION_TYPE":"U","NORAD_CAT_ID":64884,"ELEMENT_SET_NO":999,"REV_AT_EPOCH":6559,"BSTAR":0.00051444498,"MEAN_MOTION_DOT":0.00013827,"MEAN_MOTION_DDOT":0}]
